     2.100          NAVIGATION                              RINEX VERSION / TYPE
fic2rin                                 07/24/2017 00:05:55 PGM / RUN BY / DATE
                                                            END OF HEADER
 1 17  7 23 14  0  0.0  .567454844713D-04 -.227373675443D-12  .000000000000D+00
     .500000000000D+02 -.154093750000D+03  .408302721733D-08 -.810071319865D+00
    -.807829201221D-05  .692528719082D-02  .952370464802D-05  .515369139862D+04
     .504000000000D+05  .204890966415D-06  .276620490765D+01  .707805156708D-07
     .968417018319D+00  .200062500000D+03  .587371028555D+00 -.792997317236D-08
    -.389659088008D-09  .100000000000D+01  .195900000000D+04  .000000000000D+00
     .240000000000D+01  .000000000000D+00  .558793544769D-08  .500000000000D+02
     .432060000000D+05  .400000000000D+01
 2 17  7 23 14  0  0.0  .370689667761D-03 -.852651282912D-11  .000000000000D+00
     .101000000000D+03 -.122968750000D+03  .473805450185D-08 -.483696069437D+00
    -.646710395813D-05  .169470304390D-01  .868178904057D-05  .515355923080D+04
     .504000000000D+05 -.124797224998D-06  .271163899225D+01  .204890966415D-06
     .947335401808D+00  .208687500000D+03 -.196869130437D+01 -.853071248127D-08
    -.307512809143D-09  .100000000000D+01  .195900000000D+04  .000000000000D+00
     .240000000000D+01  .000000000000D+00 -.204890966415D-07  .101000000000D+03
     .432060000000D+05  .400000000000D+01
 3 17  7 23 14  0  0.0 -.851396471262D-04  .329691829393D-11  .000000000000D+00
     .600000000000D+02  .468750000000D+01  .429482175371D-08 -.155991827569D+01
     .366941094398D-06  .838278443553D-03  .109784305096D-04  .515369451523D+04
     .504000000000D+05 -.316649675369D-07 -.247502028182D+01 -.372529029846D-07
     .960102641912D+00  .168906250000D+03  .208512401218D+00 -.776389482595D-08
     .661456123731D-09  .100000000000D+01  .195900000000D+04  .000000000000D+00
     .340000000000D+01  .000000000000D+00  .232830643654D-08  .600000000000D+02
     .432060000000D+05  .400000000000D+01
 4 17  7 23 14  0  0.0  .520143657923D-06  .443378667114D-11  .000000000000D+00
     .200000000000D+02  .759375000000D+01  .526629079072D-08  .159168318649D+01
     .515952706337D-06  .122816197108D-01 -.478699803352D-06  .515366112518D+04
     .504000000000D+05 -.134110450745D-06  .162006156920D+01  .242143869400D-06
     .956352969288D+00  .389187500000D+03  .423779975886D+00 -.891144262593D-08
    -.153934983439D-09  .100000000000D+01  .195900000000D+04  .000000000000D+00
     .340000000000D+01  .630000000000D+02 -.558793544769D-08  .200000000000D+02
     .432060000000D+05  .400000000000D+01
 5 17  7 23 14  0  0.0 -.361292622983D-04  .147792889038D-11  .000000000000D+00
     .200000000000D+02  .133750000000D+02  .466376569313D-08  .212705366985D+01
     .646337866783D-06  .510465644766D-02  .107828527689D-04  .515379598618D+04
     .504000000000D+05 -.912696123123D-07 -.249263713047D+01 -.633299350739D-07
     .947063914933D+00  .167468750000D+03  .556004070978D+00 -.802819154926D-08
     .594667627436D-09  .100000000000D+01  .195900000000D+04  .000000000000D+00
     .240000000000D+01  .000000000000D+00 -.107102096081D-07  .200000000000D+02
     .432060000000D+05  .400000000000D+01
 6 17  7 23 14  0  0.0  .380398705602D-03  .432009983342D-11  .000000000000D+00
     .940000000000D+02 -.145843750000D+03  .412267172583D-08 -.763073432249D+00
    -.752694904804D-05  .667227781378D-03  .910647213459D-05  .515372007751D+04
     .504000000000D+05 -.521540641785D-07  .275783580202D+01 -.558793544769D-08
     .968176143005D+00  .210187500000D+03 -.102138521506D+01 -.787961393183D-08
    -.299655338991D-09  .100000000000D+01  .195900000000D+04  .000000000000D+00
     .240000000000D+01  .000000000000D+00  .465661287308D-08  .940000000000D+02
     .432060000000D+05  .400000000000D+01
 7 17  7 23 14  0  0.0  .324637163430D-03 -.466116034659D-11  .000000000000D+00
     .480000000000D+02  .421875000000D+01  .433160900033D-08 -.143457242349D+01
     .782310962677D-07  .108911208808D-01  .116117298603D-04  .515373004341D+04
     .504000000000D+05  .147148966789D-06 -.360361902223D+00 -.147148966789D-06
     .961965545200D+00  .150843750000D+03 -.258320952379D+01 -.773567936495D-08
    -.441089801732D-09  .100000000000D+01  .195900000000D+04  .000000000000D+00
     .240000000000D+01  .000000000000D+00 -.111758708954D-07  .480000000000D+02
     .432060000000D+05  .400000000000D+01
 8 17  7 23 14  0  0.0 -.673518516123D-04 -.125055521494D-11  .000000000000D+00
     .730000000000D+02 -.164375000000D+02  .496913555587D-08  .186691415816D+01
    -.664964318275D-06  .254223821685D-02 -.778585672379D-06  .515366120911D+04
     .504000000000D+05  .558793544769D-07  .170270015840D+01 -.242143869400D-07
     .966911899442D+00  .394031250000D+03 -.626040593766D+00 -.870429114009D-08
    -.175721605224D-09  .100000000000D+01  .195900000000D+04  .000000000000D+00
     .340000000000D+01  .000000000000D+00  .512227416039D-08  .730000000000D+02
     .432060000000D+05  .400000000000D+01
 9 17  7 23 14  0  0.0  .411262735724D-03  .750333128963D-11  .000000000000D+00
     .750000000000D+02 -.146875000000D+01  .513414242907D-08  .141953617112D+01
    -.186264514923D-07  .649568042718D-03  .446289777756D-05  .515357532501D+04
     .504000000000D+05  .409781932831D-07 -.143890797579D+01 -.167638063431D-07
     .952851524605D+00  .288687500000D+03  .195216703024D+01 -.836213403073D-08
     .707172313708D-10  .100000000000D+01  .195900000000D+04  .000000000000D+00
     .240000000000D+01  .000000000000D+00  .139698386192D-08  .750000000000D+02
     .432060000000D+05  .400000000000D+01
10 17  7 23 14  0  0.0  .155717134476D-04  .115960574476D-10  .000000000000D+00
     .160000000000D+02  .197500000000D+02  .435196699118D-08 -.293658792909D+01
     .104121863842D-05  .262793176807D-02  .109355896711D-04  .515367071152D+04
     .504000000000D+05  .372529029846D-08 -.247869516568D+01  .428408384323D-07
     .960259940715D+00  .168468750000D+03 -.279169884601D+01 -.781818280155D-08
     .752888503685D-09  .100000000000D+01  .195900000000D+04  .000000000000D+00
     .240000000000D+01  .000000000000D+00  .186264514923D-08  .160000000000D+02
     .432060000000D+05  .400000000000D+01
11 17  7 23 14  0  0.0 -.704235862941D-03 -.261479726760D-11  .000000000000D+00
     .500000000000D+02 -.149718750000D+03  .605668085650D-08 -.141016912714D+01
    -.751949846745D-05  .169870955870D-01  .420399010181D-05  .515372151756D+04
     .504000000000D+05 -.176951289177D-06  .236000562000D+01  .456348061562D-06
     .901702960965D+00  .264312500000D+03  .166448444889D+01 -.910180769825D-08
    -.516807241382D-09  .100000000000D+01  .195900000000D+04  .000000000000D+00
     .240000000000D+01  .000000000000D+00 -.121071934700D-07  .500000000000D+02
     .432060000000D+05  .400000000000D+01
12 17  7 23 14  0  0.0  .378135126084D-03 -.102318153949D-11  .000000000000D+00
     .350000000000D+02  .148156250000D+03  .397123684653D-08 -.205536938051D+01
     .770390033722D-05  .658676400781D-02  .705756247044D-05  .515375395393D+04
     .504000000000D+05  .104308128357D-06  .724663823191D+00  .223517417908D-07
     .989019856853D+00  .259468750000D+03  .909802295729D+00 -.780032491484D-08
     .437161066656D-09  .100000000000D+01  .195900000000D+04  .000000000000D+00
     .240000000000D+01  .000000000000D+00 -.125728547573D-07  .350000000000D+02
     .432060000000D+05  .400000000000D+01
13 17  7 23 14  0  0.0 -.881324522197D-04 -.795807864051D-12  .000000000000D+00
     .460000000000D+02 -.187500000000D+02  .478877090010D-08 -.309381618049D+00
    -.111199915409D-05  .353313540109D-02  .489875674248D-05  .515368310928D+04
     .504000000000D+05 -.558793544769D-08 -.131176999921D+01 -.335276126862D-07
     .968894072979D+00  .289781250000D+03  .180784286469D+01 -.826641575797D-08
    -.143934566881D-09  .100000000000D+01  .195900000000D+04  .000000000000D+00
     .240000000000D+01  .000000000000D+00 -.111758708954D-07  .460000000000D+02
     .432060000000D+05  .400000000000D+01
14 17  7 23 14  0  0.0 -.785803422332D-04 -.125055521494D-11  .000000000000D+00
     .630000000000D+02 -.135312500000D+02  .499306512406D-08  .104367767423D+01
    -.761821866035D-06  .934001058340D-02  .495649874210D-05  .515366090775D+04
     .504000000000D+05 -.150874257088D-06 -.135162343672D+01 -.745058059692D-08
     .961404728240D+00  .282875000000D+03 -.195370600105D+01 -.837106297409D-08
    -.203222750758D-09  .100000000000D+01  .195900000000D+04  .000000000000D+00
     .240000000000D+01  .000000000000D+00 -.931322574615D-08  .630000000000D+02
     .432060000000D+05  .400000000000D+01
16 17  7 23 14  0  0.0  .362298451364D-04  .341060513165D-12  .000000000000D+00
     .210000000000D+02  .166406250000D+03  .399659504565D-08  .226690017379D+01
     .855512917042D-05  .927404337563D-02  .766851007938D-05  .515373603249D+04
     .504000000000D+05 -.210478901863D-06  .743525571236D+00 -.502914190292D-07
     .989473757908D+00  .246968750000D+03  .461894097435D+00 -.783246911092D-08
     .436803908922D-09  .100000000000D+01  .195900000000D+04  .000000000000D+00
     .240000000000D+01  .000000000000D+00 -.107102096081D-07  .210000000000D+02
     .432060000000D+05  .400000000000D+01
17 17  7 23 14  0  0.0 -.167800113559D-03  .227373675443D-11  .000000000000D+00
     .800000000000D+01 -.196562500000D+02  .459554856590D-08  .135597685856D+01
    -.129640102386D-05  .116921820445D-01  .337138772011D-06  .515365684891D+04
     .504000000000D+05 -.221654772758D-06  .176106438991D+01 -.987201929092D-07
     .980184138867D+00  .387406250000D+03 -.184657895610D+01 -.852249785339D-08
    -.174650132022D-09  .100000000000D+01  .195900000000D+04  .000000000000D+00
     .240000000000D+01  .000000000000D+00 -.111758708954D-07  .800000000000D+01
     .432060000000D+05  .400000000000D+01
